[
    {
        "OBJECT_NAME": "BEIDOU-3 IGSO-2 (C39)",
        "OBJECT_ID": "2019-035A",
        "EPOCH": "2025-11-15T09:48:21.381120",
        "MEAN_MOTION": 1.00279963,
        "ECCENTRICITY": 0.00372194,
        "INCLINATION": 55.2189,
        "RA_OF_ASC_NODE": 160.7421,
        "ARG_OF_PERICENTER": 202.2043,
        "MEAN_ANOMALY": 318.2327,
        "EPHEMERIS_TYPE": 0,
        "CLASSIFICATION_TYPE": "U",
        "NORAD_CAT_ID": 44337,
        "ELEMENT_SET_NO": 999,
        "REV_AT_EPOCH": 2352,
        "BSTAR": 0,
        "MEAN_MOTION_DOT": -4.9e-7,
        "MEAN_MOTION_DDOT": 0
    },
    {
        "OBJECT_NAME": "BEIDOU-3 M24 (C46)",
        "OBJECT_ID": "2019-061A",
        "EPOCH": "2025-11-17T03:29:11.632992",
        "MEAN_MOTION": 1.86229438,
        "ECCENTRICITY": 0.00094817,
        "INCLINATION": 54.4002,
        "RA_OF_ASC_NODE": 189.8803,
        "ARG_OF_PERICENTER": 20.9663,
        "MEAN_ANOMALY": 339.1707,
        "EPHEMERIS_TYPE": 0,
        "CLASSIFICATION_TYPE": "U",
        "NORAD_CAT_ID": 44542,
        "ELEMENT_SET_NO": 999,
        "REV_AT_EPOCH": 4184,
        "BSTAR": 0,
        "MEAN_MOTION_DOT": 6.8e-7,
        "MEAN_MOTION_DDOT": 0
    },
    {
        "OBJECT_NAME": "BEIDOU-3 M23 (C45)",
        "OBJECT_ID": "2019-061B",
        "EPOCH": "2025-11-18T01:51:52.976736",
        "MEAN_MOTION": 1.86229698,
        "ECCENTRICITY": 0.0006037,
        "INCLINATION": 54.3984,
        "RA_OF_ASC_NODE": 189.8171,
        "ARG_OF_PERICENTER": 17.5205,
        "MEAN_ANOMALY": 160.5858,
        "EPHEMERIS_TYPE": 0,
        "CLASSIFICATION_TYPE": "U",
        "NORAD_CAT_ID": 44543,
        "ELEMENT_SET_NO": 999,
        "REV_AT_EPOCH": 4186,
        "BSTAR": 0,
        "MEAN_MOTION_DOT": 7.6e-7,
        "MEAN_MOTION_DDOT": 0
    },
    {
        "OBJECT_NAME": "BEIDOU-3 IGSO-3 (C40)",
        "OBJECT_ID": "2019-073A",
        "EPOCH": "2025-11-16T07:25:50.890656",
        "MEAN_MOTION": 1.00251352,
        "ECCENTRICITY": 0.00446068,
        "INCLINATION": 55.1704,
        "RA_OF_ASC_NODE": 283.202,
        "ARG_OF_PERICENTER": 191.7526,
        "MEAN_ANOMALY": 168.069,
        "EPHEMERIS_TYPE": 0,
        "CLASSIFICATION_TYPE": "U",
        "NORAD_CAT_ID": 44709,
        "ELEMENT_SET_NO": 999,
        "REV_AT_EPOCH": 2232,
        "BSTAR": 0,
        "MEAN_MOTION_DOT": -2.15e-6,
        "MEAN_MOTION_DDOT": 0
    },
    {
        "OBJECT_NAME": "BEIDOU-3 M22 (C44)",
        "OBJECT_ID": "2019-078A",
        "EPOCH": "2025-11-16T23:39:12.440160",
        "MEAN_MOTION": 1.86232113,
        "ECCENTRICITY": 0.00053088,
        "INCLINATION": 54.1319,
        "RA_OF_ASC_NODE": 307.2897,
        "ARG_OF_PERICENTER": 21.9465,
        "MEAN_ANOMALY": 338.0712,
        "EPHEMERIS_TYPE": 0,
        "CLASSIFICATION_TYPE": "U",
        "NORAD_CAT_ID": 44793,
        "ELEMENT_SET_NO": 999,
        "REV_AT_EPOCH": 4069,
        "BSTAR": 0,
        "MEAN_MOTION_DOT": -8.3e-7,
        "MEAN_MOTION_DDOT": 0
    },
    {
        "OBJECT_NAME": "BEIDOU-3 M21 (C43)",
        "OBJECT_ID": "2019-078B",
        "EPOCH": "2025-11-17T02:56:36.458880",
        "MEAN_MOTION": 1.86227811,
        "ECCENTRICITY": 0.000358,
        "INCLINATION": 54.105,
        "RA_OF_ASC_NODE": 307.2504,
        "ARG_OF_PERICENTER": 8.1705,
        "MEAN_ANOMALY": 351.8298,
        "EPHEMERIS_TYPE": 0,
        "CLASSIFICATION_TYPE": "U",
        "NORAD_CAT_ID": 44794,
        "ELEMENT_SET_NO": 999,
        "REV_AT_EPOCH": 4070,
        "BSTAR": 0,
        "MEAN_MOTION_DOT": -8.4e-7,
        "MEAN_MOTION_DDOT": 0
    },
    {
        "OBJECT_NAME": "BEIDOU-3 M19 (C41)",
        "OBJECT_ID": "2019-090A",
        "EPOCH": "2025-11-17T12:13:31.987200",
        "MEAN_MOTION": 1.86231519,
        "ECCENTRICITY": 0.00169702,
        "INCLINATION": 56.3721,
        "RA_OF_ASC_NODE": 69.7981,
        "ARG_OF_PERICENTER": 284.3972,
        "MEAN_ANOMALY": 170.4268,
        "EPHEMERIS_TYPE": 0,
        "CLASSIFICATION_TYPE": "U",
        "NORAD_CAT_ID": 44864,
        "ELEMENT_SET_NO": 999,
        "REV_AT_EPOCH": 4029,
        "BSTAR": 0,
        "MEAN_MOTION_DOT": -6.5e-7,
        "MEAN_MOTION_DDOT": 0
    },
    {
        "OBJECT_NAME": "BEIDOU-3 M20 (C42)",
        "OBJECT_ID": "2019-090B",
        "EPOCH": "2025-11-17T08:21:15.784704",
        "MEAN_MOTION": 1.86231498,
        "ECCENTRICITY": 0.00141043,
        "INCLINATION": 56.3736,
        "RA_OF_ASC_NODE": 69.8376,
        "ARG_OF_PERICENTER": 297.7158,
        "MEAN_ANOMALY": 138.5807,
        "EPHEMERIS_TYPE": 0,
        "CLASSIFICATION_TYPE": "U",
        "NORAD_CAT_ID": 44865,
        "ELEMENT_SET_NO": 999,
        "REV_AT_EPOCH": 4027,
        "BSTAR": 0,
        "MEAN_MOTION_DOT": -6.5e-7,
        "MEAN_MOTION_DDOT": 0
    },
    {
        "OBJECT_NAME": "BEIDOU-3 G2 (C60)",
        "OBJECT_ID": "2020-017A",
        "EPOCH": "2025-11-18T02:35:18.816288",
        "MEAN_MOTION": 1.00273144,
        "ECCENTRICITY": 0.0003846,
        "INCLINATION": 2.9543,
        "RA_OF_ASC_NODE": 43.2948,
        "ARG_OF_PERICENTER": 265.5771,
        "MEAN_ANOMALY": 227.4231,
        "EPHEMERIS_TYPE": 0,
        "CLASSIFICATION_TYPE": "U",
        "NORAD_CAT_ID": 45344,
        "ELEMENT_SET_NO": 999,
        "REV_AT_EPOCH": 2114,
        "BSTAR": 0,
        "MEAN_MOTION_DOT": -1.25e-6,
        "MEAN_MOTION_DDOT": 0
    },
    {
        "OBJECT_NAME": "BEIDOU-3 G3 (C61)",
        "OBJECT_ID": "2020-040A",
        "EPOCH": "2025-11-14T20:57:21.716064",
        "MEAN_MOTION": 1.00265793,
        "ECCENTRICITY": 0.00048479,
        "INCLINATION": 1.9226,
        "RA_OF_ASC_NODE": 66.3317,
        "ARG_OF_PERICENTER": 303.512,
        "MEAN_ANOMALY": 109.1672,
        "EPHEMERIS_TYPE": 0,
        "CLASSIFICATION_TYPE": "U",
        "NORAD_CAT_ID": 45807,
        "ELEMENT_SET_NO": 999,
        "REV_AT_EPOCH": 1992,
        "BSTAR": 0,
        "MEAN_MOTION_DOT": -3.48e-6,
        "MEAN_MOTION_DDOT": 0
    },
    {
        "OBJECT_NAME": "BEIDOU-3 G4 (C62)",
        "OBJECT_ID": "2023-066A",
        "EPOCH": "2025-11-18T04:41:38.804928",
        "MEAN_MOTION": 1.00272736,
        "ECCENTRICITY": 0.0003823,
        "INCLINATION": 0.8705,
        "RA_OF_ASC_NODE": 300.088,
        "ARG_OF_PERICENTER": 226.7808,
        "MEAN_ANOMALY": 121.0996,
        "EPHEMERIS_TYPE": 0,
        "CLASSIFICATION_TYPE": "U",
        "NORAD_CAT_ID": 56564,
        "ELEMENT_SET_NO": 999,
        "REV_AT_EPOCH": 927,
        "BSTAR": 0,
        "MEAN_MOTION_DOT": -9.4e-7,
        "MEAN_MOTION_DDOT": 0
    },
    {
        "OBJECT_NAME": "BEIDOU-3 M28 (C50)",
        "OBJECT_ID": "2023-207A",
        "EPOCH": "2025-11-16T15:56:14.719200",
        "MEAN_MOTION": 1.86229774,
        "ECCENTRICITY": 0.00013847,
        "INCLINATION": 55.5621,
        "RA_OF_ASC_NODE": 69.4842,
        "ARG_OF_PERICENTER": 254.7518,
        "MEAN_ANOMALY": 105.2155,
        "EPHEMERIS_TYPE": 0,
        "CLASSIFICATION_TYPE": "U",
        "NORAD_CAT_ID": 58654,
        "ELEMENT_SET_NO": 999,
        "REV_AT_EPOCH": 1288,
        "BSTAR": 0,
        "MEAN_MOTION_DOT": -6.4e-7,
        "MEAN_MOTION_DDOT": 0
    },
    {
        "OBJECT_NAME": "BEIDOU-3 M26 (C48)",
        "OBJECT_ID": "2023-207B",
        "EPOCH": "2025-11-16T11:05:09.400704",
        "MEAN_MOTION": 1.86231313,
        "ECCENTRICITY": 0.00029026,
        "INCLINATION": 55.5643,
        "RA_OF_ASC_NODE": 69.4772,
        "ARG_OF_PERICENTER": 242.6635,
        "MEAN_ANOMALY": 117.2899,
        "EPHEMERIS_TYPE": 0,
        "CLASSIFICATION_TYPE": "U",
        "NORAD_CAT_ID": 58655,
        "ELEMENT_SET_NO": 999,
        "REV_AT_EPOCH": 1286,
        "BSTAR": 0,
        "MEAN_MOTION_DOT": -6.3e-7,
        "MEAN_MOTION_DDOT": 0
    }
]